start=new Date('2023-05-30T00:00:00.000Z').valueOf();
sats=[{"TLE_LINE1":"1 45180U 20012C   23149.55735393  .00041941  00000-0  12580-2 0  9999","COUNTRY_CODE":"US","NORAD_CAT_ID":"45180","ELEMENT_SET_NO":"999","PERIAPSIS":"462.535","MEAN_ANOMALY":"79.1319","OBJECT_ID":"2020-012C","DECAY_DATE":null,"RA_OF_ASC_NODE":"254.0626","CENTER_NAME":"EARTH","CLASSIFICATION_TYPE":"U","REF_FRAME":"TEME","PERIOD":"93.867","SITE":"AFETR","TIME_SYSTEM":"UTC","MEAN_ELEMENT_THEORY":"SGP4","RCS_SIZE":"LARGE","APOAPSIS":"464.765","REV_AT_EPOCH":"18160","MEAN_MOTION_DDOT":"0.0000000000000","MEAN_MOTION_DOT":"0.00041941","TLE_LINE2":"2 45180  53.0429 254.0626 0001630 280.9498  79.1319 15.34082220181601","OBJECT_NAME":"STARLINK-1192","INCLINATION":"53.0429","OBJECT_TYPE":"PAYLOAD","FILE":"3920235","LAUNCH_DATE":"2020-02-17","EPHEMERIS_TYPE":"0","BSTAR":"0.00125800000000","ECCENTRICITY":"0.00016300","GP_ID":"232754577","MEAN_MOTION":"15.34082220","EPOCH":"2023-05-29T13:22:35.379552","ARG_OF_PERICENTER":"280.9498","SEMIMAJOR_AXIS":"6841.785"},{"TLE_LINE2":"2 45181  53.0539 282.8085 0000793  79.5451 280.5627 15.06397415181864","MEAN_MOTION_DOT":"0.00008820","APOAPSIS":"547.771","REV_AT_EPOCH":"18186","MEAN_MOTION_DDOT":"0.0000000000000","OBJECT_NAME":"STARLINK-1200","OBJECT_TYPE":"PAYLOAD","INCLINATION":"53.0539","EPHEMERIS_TYPE":"0","LAUNCH_DATE":"2020-02-17","FILE":"3920354","ECCENTRICITY":"0.00007930","BSTAR":"0.00061033000000","MEAN_MOTION":"15.06397415","GP_ID":"232777627","ARG_OF_PERICENTER":"79.5451","SEMIMAJOR_AXIS":"6925.356","EPOCH":"2023-05-29T18:16:16.599936","COUNTRY_CODE":"US","TLE_LINE1":"1 45181U 20012D   23149.76130324  .00008820  00000-0  61033-3 0  9993","ELEMENT_SET_NO":"999","NORAD_CAT_ID":"45181","MEAN_ANOMALY":"280.5627","PERIAPSIS":"546.672","DECAY_DATE":null,"OBJECT_ID":"2020-012D","CLASSIFICATION_TYPE":"U","CENTER_NAME":"EARTH","RA_OF_ASC_NODE":"282.8085","TIME_SYSTEM":"UTC","MEAN_ELEMENT_THEORY":"SGP4","SITE":"AFETR","PERIOD":"95.592","REF_FRAME":"TEME","RCS_SIZE":"LARGE"},{"OBJECT_NAME":"STARLINK-1201","MEAN_MOTION_DOT":"0.00000420","TLE_LINE2":"2 45182  53.0533 263.6115 0000863 111.7834 248.3247 15.06384742181478","REV_AT_EPOCH":"18147","APOAPSIS":"547.858","MEAN_MOTION_DDOT":"0.0000000000000","LAUNCH_DATE":"2020-02-17","EPHEMERIS_TYPE":"0","FILE":"3920220","INCLINATION":"53.0533","OBJECT_TYPE":"PAYLOAD","ECCENTRICITY":"0.00008630","BSTAR":"0.00004709800000","SEMIMAJOR_AXIS":"6925.395","ARG_OF_PERICENTER":"111.7834","EPOCH":"2023-05-29T13:58:51.388608","GP_ID":"232754429","MEAN_MOTION":"15.06384742","TLE_LINE1":"1 45182U 20012E   23149.58253922  .00000420  00000-0  47098-4 0  9998","COUNTRY_CODE":"US","MEAN_ANOMALY":"248.3247","PERIAPSIS":"546.663","ELEMENT_SET_NO":"999","NORAD_CAT_ID":"45182","CLASSIFICATION_TYPE":"U","CENTER_NAME":"EARTH","RA_OF_ASC_NODE":"263.6115","OBJECT_ID":"2020-012E","DECAY_DATE":null,"RCS_SIZE":"LARGE","SITE":"AFETR","MEAN_ELEMENT_THEORY":"SGP4","TIME_SYSTEM":"UTC","REF_FRAME":"TEME","PERIOD":"95.593"},{"EPOCH":"2023-05-29T15:58:16.728960","ARG_OF_PERICENTER":"77.4912","SEMIMAJOR_AXIS":"6925.348","GP_ID":"232776637","MEAN_MOTION":"15.06400055","ECCENTRICITY":"0.00007770","BSTAR":"0.00043274000000","FILE":"3920354","LAUNCH_DATE":"2020-02-17","EPHEMERIS_TYPE":"0","OBJECT_TYPE":"PAYLOAD","INCLINATION":"53.0541","OBJECT_NAME":"STARLINK-1202","MEAN_MOTION_DDOT":"0.0000000000000","APOAPSIS":"547.751","REV_AT_EPOCH":"18185","MEAN_MOTION_DOT":"0.00006170","TLE_LINE2":"2 45183  53.0541 283.2402 0000777  77.4912 282.6164 15.06400055181851","RCS_SIZE":"LARGE","REF_FRAME":"TEME","PERIOD":"95.592","SITE":"AFETR","TIME_SYSTEM":"UTC","MEAN_ELEMENT_THEORY":"SGP4","RA_OF_ASC_NODE":"283.2402","CLASSIFICATION_TYPE":"U","CENTER_NAME":"EARTH","OBJECT_ID":"2020-012F","DECAY_DATE":null,"PERIAPSIS":"546.675","MEAN_ANOMALY":"282.6164","NORAD_CAT_ID":"45183","ELEMENT_SET_NO":"999","COUNTRY_CODE":"US","TLE_LINE1":"1 45183U 20012F   23149.66547140  .00006170  00000-0  43274-3 0  9995"},{"TLE_LINE1":"1 45184U 20012G   23149.72261641  .00023242  00000-0  15752-2 0  9990","COUNTRY_CODE":"US","NORAD_CAT_ID":"45184","ELEMENT_SET_NO":"999","PERIAPSIS":"546.664","MEAN_ANOMALY":"304.6108","DECAY_DATE":null,"OBJECT_ID":"2020-012G","RA_OF_ASC_NODE":"262.9800","CENTER_NAME":"EARTH","CLASSIFICATION_TYPE":"U","PERIOD":"95.594","REF_FRAME":"TEME","MEAN_ELEMENT_THEORY":"SGP4","TIME_SYSTEM":"UTC","SITE":"AFETR","RCS_SIZE":"LARGE","REV_AT_EPOCH":"18117","APOAPSIS":"547.922","MEAN_MOTION_DDOT":"0.0000000000000","TLE_LINE2":"2 45184  53.0532 262.9800 0000908  55.4967 304.6108 15.06374033181174","MEAN_MOTION_DOT":"0.00023242","OBJECT_NAME":"STARLINK-1205","OBJECT_TYPE":"PAYLOAD","INCLINATION":"53.0532","FILE":"3920354","EPHEMERIS_TYPE":"0","LAUNCH_DATE":"2020-02-17","ECCENTRICITY":"0.00009080","BSTAR":"0.00157520000000","MEAN_MOTION":"15.06374033","GP_ID":"232776889","EPOCH":"2023-05-29T17:20:34.057824","ARG_OF_PERICENTER":"55.4967","SEMIMAJOR_AXIS":"6925.428"},{"SEMIMAJOR_AXIS":"6925.354","ARG_OF_PERICENTER":"78.3972","EPOCH":"2023-05-29T14:12:07.473888","GP_ID":"232755101","MEAN_MOTION":"15.06398306","BSTAR":"0.00021720000000","ECCENTRICITY":"0.00012180","LAUNCH_DATE":"2020-02-17","EPHEMERIS_TYPE":"0","FILE":"3920292","INCLINATION":"53.0536","OBJECT_TYPE":"PAYLOAD","OBJECT_NAME":"STARLINK-1216","MEAN_MOTION_DOT":"0.00002955","TLE_LINE2":"2 45185  53.0536 283.5676 0001218  78.3972 281.7154 15.06398306181191","APOAPSIS":"548.062","REV_AT_EPOCH":"18119","MEAN_MOTION_DDOT":"0.0000000000000","RCS_SIZE":"LARGE","SITE":"AFETR","MEAN_ELEMENT_THEORY":"SGP4","TIME_SYSTEM":"UTC","REF_FRAME":"TEME","PERIOD":"95.592","CLASSIFICATION_TYPE":"U","CENTER_NAME":"EARTH","RA_OF_ASC_NODE":"283.5676","OBJECT_ID":"2020-012H","DECAY_DATE":null,"MEAN_ANOMALY":"281.7154","PERIAPSIS":"546.375","ELEMENT_SET_NO":"999","NORAD_CAT_ID":"45185","TLE_LINE1":"1 45185U 20012H   23149.59175317  .00002955  00000-0  21720-3 0  9991","COUNTRY_CODE":"US"},{"RCS_SIZE":"LARGE","REF_FRAME":"TEME","PERIOD":"95.593","SITE":"AFETR","TIME_SYSTEM":"UTC","MEAN_ELEMENT_THEORY":"SGP4","RA_OF_ASC_NODE":"282.9080","CLASSIFICATION_TYPE":"U","CENTER_NAME":"EARTH","OBJECT_ID":"2020-012J","DECAY_DATE":null,"PERIAPSIS":"546.710","MEAN_ANOMALY":"251.7986","NORAD_CAT_ID":"45186","ELEMENT_SET_NO":"999","COUNTRY_CODE":"US","TLE_LINE1":"1 45186U 20012J   23149.73919744  .00004425  00000-0  31584-3 0  9991","EPOCH":"2023-05-29T17:44:26.658816","ARG_OF_PERICENTER":"108.3089","SEMIMAJOR_AXIS":"6925.388","GP_ID":"232776387","MEAN_MOTION":"15.06387032","BSTAR":"0.00031584000000","ECCENTRICITY":"0.00007850","FILE":"3920354","LAUNCH_DATE":"2020-02-17","EPHEMERIS_TYPE":"0","INCLINATION":"53.0546","OBJECT_TYPE":"PAYLOAD","OBJECT_NAME":"STARLINK-1224","REV_AT_EPOCH":"18180","APOAPSIS":"547.797","MEAN_MOTION_DDOT":"0.0000000000000","MEAN_MOTION_DOT":"0.00004425","TLE_LINE2":"2 45186  53.0546 282.9080 0000785 108.3089 251.7986 15.06387032181808"},{"BSTAR":"-0.00002405100000","ECCENTRICITY":"0.00003910","MEAN_MOTION":"15.06388256","GP_ID":"232776138","ARG_OF_PERICENTER":"111.6782","SEMIMAJOR_AXIS":"6925.385","EPOCH":"2023-05-29T16:14:12.271488","TLE_LINE2":"2 45187  53.0532 283.1887 0000391 111.6782 248.4249 15.06388256181840","MEAN_MOTION_DOT":"-0.00000639","APOAPSIS":"547.520","MEAN_MOTION_DDOT":"0.0000000000000","REV_AT_EPOCH":"18184","OBJECT_NAME":"STARLINK-1225","INCLINATION":"53.0532","OBJECT_TYPE":"PAYLOAD","EPHEMERIS_TYPE":"0","LAUNCH_DATE":"2020-02-17","FILE":"3920354","DECAY_DATE":null,"OBJECT_ID":"2020-012K","CLASSIFICATION_TYPE":"U","CENTER_NAME":"EARTH","RA_OF_ASC_NODE":"283.1887","TIME_SYSTEM":"UTC","MEAN_ELEMENT_THEORY":"SGP4","SITE":"AFETR","PERIOD":"95.593","REF_FRAME":"TEME","RCS_SIZE":"LARGE","COUNTRY_CODE":"US","TLE_LINE1":"1 45187U 20012K   23149.67653092 -.00000639  00000-0 -24051-4 0  9993","ELEMENT_SET_NO":"999","NORAD_CAT_ID":"45187","MEAN_ANOMALY":"248.4249","PERIAPSIS":"546.979"},{"OBJECT_NAME":"STARLINK-1228","TLE_LINE2":"2 45188  53.0534 243.6541 0001155  82.3737 277.7384 15.06384516182340","MEAN_MOTION_DOT":"-0.00002560","APOAPSIS":"548.061","REV_AT_EPOCH":"18234","MEAN_MOTION_DDOT":"0.0000000000000","EPHEMERIS_TYPE":"0","LAUNCH_DATE":"2020-02-17","FILE":"3920065","OBJECT_TYPE":"PAYLOAD","INCLINATION":"53.0534","BSTAR":"-0.00015310000000","ECCENTRICITY":"0.00011550","SEMIMAJOR_AXIS":"6925.396","ARG_OF_PERICENTER":"82.3737","EPOCH":"2023-05-29T13:45:35.040672","MEAN_MOTION":"15.06384516","GP_ID":"232744009","COUNTRY_CODE":"US","TLE_LINE1":"1 45188U 20012L   23149.57332223 -.00002560  00000-0 -15310-3 0  9995","MEAN_ANOMALY":"277.7384","PERIAPSIS":"546.461","ELEMENT_SET_NO":"999","NORAD_CAT_ID":"45188","CLASSIFICATION_TYPE":"U","CENTER_NAME":"EARTH","RA_OF_ASC_NODE":"243.6541","DECAY_DATE":null,"OBJECT_ID":"2020-012L","RCS_SIZE":"LARGE","TIME_SYSTEM":"UTC","MEAN_ELEMENT_THEORY":"SGP4","SITE":"AFETR","PERIOD":"95.593","REF_FRAME":"TEME"},{"CENTER_NAME":"EARTH","CLASSIFICATION_TYPE":"U","RA_OF_ASC_NODE":"282.8745","DECAY_DATE":null,"OBJECT_ID":"2020-012M","RCS_SIZE":"LARGE","MEAN_ELEMENT_THEORY":"SGP4","TIME_SYSTEM":"UTC","SITE":"AFETR","PERIOD":"95.593","REF_FRAME":"TEME","TLE_LINE1":"1 45189U 20012M   23149.74657145  .00002302  00000-0  17346-3 0  9991","COUNTRY_CODE":"US","MEAN_ANOMALY":"265.5067","PERIAPSIS":"546.435","ELEMENT_SET_NO":"999","NORAD_CAT_ID":"45189","ECCENTRICITY":"0.00012040","BSTAR":"0.00017346000000","ARG_OF_PERICENTER":"94.6059","SEMIMAJOR_AXIS":"6925.404","EPOCH":"2023-05-29T17:55:03.773280","MEAN_MOTION":"15.06381858","GP_ID":"232777628","OBJECT_NAME":"STARLINK-1230","TLE_LINE2":"2 45189  53.0533 282.8745 0001204  94.6059 265.5067 15.06381858179085","MEAN_MOTION_DOT":"0.00002302","MEAN_MOTION_DDOT":"0.0000000000000","APOAPSIS":"548.103","REV_AT_EPOCH":"17908","EPHEMERIS_TYPE":"0","LAUNCH_DATE":"2020-02-17","FILE":"3920354","INCLINATION":"53.0533","OBJECT_TYPE":"PAYLOAD"}];
